{
  "type": "FeatureCollection",
  "features": [
    {
      "type": "Feature",
      "properties": {
        "norad_id": 25590,
        "name": "COSMOS 2361",
        "group": "musson",
        "lat": 74.5326643061222,
        "lon": 16.63198261554869,
        "alt_km": 999.6369788979737,
        "timestamp": "2025-12-04T17:48:40.435664+00:00",
        "meta_object_name": "COSMOS 2361",
        "meta_object_id": "1998-076A",
        "meta_epoch": "2025-12-04T03:46:53.901984",
        "meta_mean_motion": 13.73216093,
        "meta_eccentricity": 0.00301484,
        "meta_inclination": 82.9341,
        "meta_ra_of_asc_node": 350.4345,
        "meta_arg_of_pericenter": 290.5381,
        "meta_mean_anomaly": 137.2839,
        "meta_ephemeris_type": 0,
        "meta_classification_type": "U",
        "meta_norad_cat_id": 25590,
        "meta_element_set_no": 999,
        "meta_rev_at_epoch": 34993,
        "meta_bstar": 9.2888965e-05,
        "meta_mean_motion_dot": 1.01e-06,
        "meta_mean_motion_ddot": 0,
        "tle_line1": "1 25590U 98076A   25338.15756831  .00000101  00000+0  92889-4 0  9999",
        "tle_line2": "2 25590  82.9341 350.4345 0030148 290.5381 137.2839 13.73216093349934"
      },
      "geometry": {
        "type": "Point",
        "coordinates": [
          16.63198261554869,
          74.5326643061222
        ]
      }
    },
    {
      "type": "Feature",
      "properties": {
        "norad_id": 26818,
        "name": "COSMOS 2378",
        "group": "musson",
        "lat": 57.514369442605435,
        "lon": 174.41293220055286,
        "alt_km": 985.6269135418679,
        "timestamp": "2025-12-04T17:48:40.435685+00:00",
        "meta_object_name": "COSMOS 2378",
        "meta_object_id": "2001-023A",
        "meta_epoch": "2025-12-04T03:31:38.059392",
        "meta_mean_motion": 13.74140966,
        "meta_eccentricity": 0.00319506,
        "meta_inclination": 82.9279,
        "meta_ra_of_asc_node": 6.0967,
        "meta_arg_of_pericenter": 229.4062,
        "meta_mean_anomaly": 190.1028,
        "meta_ephemeris_type": 0,
        "meta_classification_type": "U",
        "meta_norad_cat_id": 26818,
        "meta_element_set_no": 999,
        "meta_rev_at_epoch": 22805,
        "meta_bstar": 9.6677365e-05,
        "meta_mean_motion_dot": 1.06e-06,
        "meta_mean_motion_ddot": 0,
        "tle_line1": "1 26818U 01023A   25338.14696828  .00000106  00000+0  96677-4 0  9991",
        "tle_line2": "2 26818  82.9279   6.0967 0031950 229.4062 190.1028 13.74140966228054"
      },
      "geometry": {
        "type": "Point",
        "coordinates": [
          174.41293220055286,
          57.514369442605435
        ]
      }
    },
    {
      "type": "Feature",
      "properties": {
        "norad_id": 27436,
        "name": "COSMOS 2389",
        "group": "musson",
        "lat": -59.7322539927603,
        "lon": -59.33676877516375,
        "alt_km": 1016.2302247779771,
        "timestamp": "2025-12-04T17:48:40.435698+00:00",
        "meta_object_name": "COSMOS 2389",
        "meta_object_id": "2002-026A",
        "meta_epoch": "2025-12-04T08:13:02.946144",
        "meta_mean_motion": 13.75153316,
        "meta_eccentricity": 0.00477652,
        "meta_inclination": 82.9495,
        "meta_ra_of_asc_node": 313.2019,
        "meta_arg_of_pericenter": 83.5513,
        "meta_mean_anomaly": 38.5368,
        "meta_ephemeris_type": 0,
        "meta_classification_type": "U",
        "meta_norad_cat_id": 27436,
        "meta_element_set_no": 999,
        "meta_rev_at_epoch": 18033,
        "meta_bstar": 7.8384773e-05,
        "meta_mean_motion_dot": 9.1e-07,
        "meta_mean_motion_ddot": 0,
        "tle_line1": "1 27436U 02026A   25338.34239521  .00000091  00000+0  78385-4 0  9996",
        "tle_line2": "2 27436  82.9495 313.2019 0047765  83.5513  38.5368 13.75153316180337"
      },
      "geometry": {
        "type": "Point",
        "coordinates": [
          -59.33676877516375,
          -59.7322539927603
        ]
      }
    },
    {
      "type": "Feature",
      "properties": {
        "norad_id": 27818,
        "name": "COSMOS 2398",
        "group": "musson",
        "lat": -27.807170364075496,
        "lon": -85.15101442369227,
        "alt_km": 1019.2567955952691,
        "timestamp": "2025-12-04T17:48:40.435710+00:00",
        "meta_object_name": "COSMOS 2398",
        "meta_object_id": "2003-023A",
        "meta_epoch": "2025-12-04T06:30:56.105280",
        "meta_mean_motion": 13.72384481,
        "meta_eccentricity": 0.00322601,
        "meta_inclination": 82.9477,
        "meta_ra_of_asc_node": 278.939,
        "meta_arg_of_pericenter": 134.5424,
        "meta_mean_anomaly": 33.6574,
        "meta_ephemeris_type": 0,
        "meta_classification_type": "U",
        "meta_norad_cat_id": 27818,
        "meta_element_set_no": 999,
        "meta_rev_at_epoch": 12700,
        "meta_bstar": 6.6665711e-05,
        "meta_mean_motion_dot": 7.6e-07,
        "meta_mean_motion_ddot": 0,
        "tle_line1": "1 27818U 03023A   25338.27148270  .00000076  00000+0  66666-4 0  9992",
        "tle_line2": "2 27818  82.9477 278.9390 0032260 134.5424  33.6574 13.72384481127008"
      },
      "geometry": {
        "type": "Point",
        "coordinates": [
          -85.15101442369227,
          -27.807170364075496
        ]
      }
    },
    {
      "type": "Feature",
      "properties": {
        "norad_id": 28380,
        "name": "COSMOS 2407",
        "group": "musson",
        "lat": 54.14258203123885,
        "lon": -131.3440749813413,
        "alt_km": 944.1558061742016,
        "timestamp": "2025-12-04T17:48:40.435721+00:00",
        "meta_object_name": "COSMOS 2407",
        "meta_object_id": "2004-028A",
        "meta_epoch": "2025-12-04T04:08:04.971264",
        "meta_mean_motion": 13.76312221,
        "meta_eccentricity": 0.0040515,
        "meta_inclination": 82.9613,
        "meta_ra_of_asc_node": 219.2354,
        "meta_arg_of_pericenter": 78.0751,
        "meta_mean_anomaly": 35.0272,
        "meta_ephemeris_type": 0,
        "meta_classification_type": "U",
        "meta_norad_cat_id": 28380,
        "meta_element_set_no": 999,
        "meta_rev_at_epoch": 7305,
        "meta_bstar": 0.00010845447,
        "meta_mean_motion_dot": 1.22e-06,
        "meta_mean_motion_ddot": 0,
        "tle_line1": "1 28380U 04028A   25338.17227976  .00000122  00000+0  10845-3 0  9992",
        "tle_line2": "2 28380  82.9613 219.2354 0040515  78.0751  35.0272 13.76312221 73053"
      },
      "geometry": {
        "type": "Point",
        "coordinates": [
          -131.3440749813413,
          54.14258203123885
        ]
      }
    },
    {
      "type": "Feature",
      "properties": {
        "norad_id": 28521,
        "name": "COSMOS 2414",
        "group": "musson",
        "lat": -14.824199188081115,
        "lon": -171.16972874926412,
        "alt_km": 970.1135507123981,
        "timestamp": "2025-12-04T17:48:40.435731+00:00",
        "meta_object_name": "COSMOS 2414",
        "meta_object_id": "2005-002A",
        "meta_epoch": "2025-12-04T02:18:41.717088",
        "meta_mean_motion": 13.87901271,
        "meta_eccentricity": 0.00403607,
        "meta_inclination": 82.9499,
        "meta_ra_of_asc_node": 191.1955,
        "meta_arg_of_pericenter": 163.9707,
        "meta_mean_anomaly": 196.2744,
        "meta_ephemeris_type": 0,
        "meta_classification_type": "U",
        "meta_norad_cat_id": 28521,
        "meta_element_set_no": 999,
        "meta_rev_at_epoch": 5675,
        "meta_bstar": 0.00010319171,
        "meta_mean_motion_dot": 1.39e-06,
        "meta_mean_motion_ddot": 0,
        "tle_line1": "1 28521U 05002A   25338.09631617  .00000139  00000+0  10319-3 0  9998",
        "tle_line2": "2 28521  82.9499 191.1955 0040360 163.9707 196.2744 13.87901271 56753"
      },
      "geometry": {
        "type": "Point",
        "coordinates": [
          -171.16972874926412,
          -14.824199188081115
        ]
      }
    },
    {
      "type": "Feature",
      "properties": {
        "norad_id": 32052,
        "name": "COSMOS 2429",
        "group": "musson",
        "lat": 53.01808948657666,
        "lon": 159.78894579644933,
        "alt_km": 964.5646126150432,
        "timestamp": "2025-12-04T17:48:40.435742+00:00",
        "meta_object_name": "COSMOS 2429",
        "meta_object_id": "2007-038A",
        "meta_epoch": "2025-12-04T06:43:31.388160",
        "meta_mean_motion": 13.75148168,
        "meta_eccentricity": 0.0039595,
        "meta_inclination": 82.9805,
        "meta_ra_of_asc_node": 349.5456,
        "meta_arg_of_pericenter": 60.8741,
        "meta_mean_anomaly": 299.6369,
        "meta_ephemeris_type": 0,
        "meta_classification_type": "U",
        "meta_norad_cat_id": 32052,
        "meta_element_set_no": 999,
        "meta_rev_at_epoch": 91486,
        "meta_bstar": 7.7958251e-05,
        "meta_mean_motion_dot": 9.1e-07,
        "meta_mean_motion_ddot": 0,
        "tle_line1": "1 32052U 07038A   25338.28022440  .00000091  00000+0  77958-4 0  9992",
        "tle_line2": "2 32052  82.9805 349.5456 0039595  60.8741 299.6369 13.75148168914865"
      },
      "geometry": {
        "type": "Point",
        "coordinates": [
          159.78894579644933,
          53.01808948657666
        ]
      }
    },
    {
      "type": "Feature",
      "properties": {
        "norad_id": 35635,
        "name": "COSMOS 2454",
        "group": "musson",
        "lat": -22.972895766018315,
        "lon": 171.70278937886079,
        "alt_km": 941.2915973471345,
        "timestamp": "2025-12-04T17:48:40.435753+00:00",
        "meta_object_name": "COSMOS 2454",
        "meta_object_id": "2009-039A",
        "meta_epoch": "2025-12-04T06:39:36.744768",
        "meta_mean_motion": 13.89927112,
        "meta_eccentricity": 0.00204931,
        "meta_inclination": 82.9557,
        "meta_ra_of_asc_node": 175.0596,
        "meta_arg_of_pericenter": 96.3483,
        "meta_mean_anomaly": 77.2751,
        "meta_ephemeris_type": 0,
        "meta_classification_type": "U",
        "meta_norad_cat_id": 35635,
        "meta_element_set_no": 999,
        "meta_rev_at_epoch": 83032,
        "meta_bstar": 9.7860074e-05,
        "meta_mean_motion_dot": 1.37e-06,
        "meta_mean_motion_ddot": 0,
        "tle_line1": "1 35635U 09039A   25338.27750862  .00000137  00000+0  97860-4 0  9995",
        "tle_line2": "2 35635  82.9557 175.0596 0020493  96.3483  77.2751 13.89927112830322"
      },
      "geometry": {
        "type": "Point",
        "coordinates": [
          171.70278937886079,
          -22.972895766018315
        ]
      }
    },
    {
      "type": "Feature",
      "properties": {
        "norad_id": 36519,
        "name": "COSMOS 2463",
        "group": "musson",
        "lat": -2.7681344491504234,
        "lon": -147.06832533614872,
        "alt_km": 1012.9081227124971,
        "timestamp": "2025-12-04T17:48:40.435763+00:00",
        "meta_object_name": "COSMOS 2463",
        "meta_object_id": "2010-017A",
        "meta_epoch": "2025-12-04T06:45:04.885920",
        "meta_mean_motion": 13.71648059,
        "meta_eccentricity": 0.00350797,
        "meta_inclination": 82.962,
        "meta_ra_of_asc_node": 32.9279,
        "meta_arg_of_pericenter": 312.3201,
        "meta_mean_anomaly": 116.4095,
        "meta_ephemeris_type": 0,
        "meta_classification_type": "U",
        "meta_norad_cat_id": 36519,
        "meta_element_set_no": 999,
        "meta_rev_at_epoch": 78121,
        "meta_bstar": 9.888716e-05,
        "meta_mean_motion_dot": 1.04e-06,
        "meta_mean_motion_ddot": 0,
        "tle_line1": "1 36519U 10017A   25338.28130655  .00000104  00000+0  98887-4 0  9992",
        "tle_line2": "2 36519  82.9620  32.9279 0035079 312.3201 116.4095 13.71648059781210"
      },
      "geometry": {
        "type": "Point",
        "coordinates": [
          -147.06832533614872,
          -2.7681344491504234
        ]
      }
    }
  ]
}